{"fetched_at":"2026-03-29T02:12:04Z","count":15717,"tles":[{"name":"NAVSTAR 53 (USA 175)","line1":"1 28129U 03058A   26087.08652556 -.00000094  00000+0  00000+0 0  9990","line2":"2 28129  54.9811  26.2697 0003083 319.2827  40.6827  1.92678402162904","category":"GPS"}]}