{
  "norad_id": 28129,
  "name": "NAVSTAR 53 (USA 175)",
  "history": [
    {
      "epoch": "2026-03-28T02:04:35.808384",
      "apogee_km": 20910.406515735325,
      "perigee_km": 20893.585585696255,
      "latitude_deg": 54.86896083133718,
      "longitude_deg": -118.79354624007829,
      "semi_major_axis_km": 27280.13305071579,
      "eccentricity": 0.0003083,
      "inclination_deg": 54.9811,
      "raan_deg": 26.2697,
      "arg_perigee_deg": 319.2827,
      "mean_anomaly_deg": 40.6827,
      "mean_motion_rev_day": 1.92678402
    }
  ]
}